FLOCK 4G-18             
1 62680U 25009BZ  26068.19114186  .00011766  00000+0  44319-3 0  9995
2 62680  97.4054 150.5008 0004100 335.7331  24.3715 15.27241676121267
STARLINK-32919          
1 63150U 25043U   26068.23962019  .00030852  00000+0  11255-2 0  9996
2 63150  43.0058  18.7595 0001897 255.7736 104.2905 15.27591813 57298
